[{"OBJECT_NAME":"SHIJIAN-6 01A (SJ-6 01A)","OBJECT_ID":"2004-035A","EPOCH":"2026-03-09T23:26:31.260480","MEAN_MOTION":15.1644809,"ECCENTRICITY":0.0008065,"INCLINATION":97.598,"RA_OF_ASC_NODE":95.8752,"ARG_OF_PERICENTER":114.4113,"MEAN_ANOMALY":245.7962,"EPHEMERIS_TYPE":0,"CLASSIFICATION_TYPE":"U","NORAD_CAT_ID":28413,"ELEMENT_SET_NO":999,"REV_AT_EPOCH":17242,"BSTAR":0.00047768034,"MEAN_MOTION_DOT":9.235e-5,"MEAN_MOTION_DDOT":0},{"OBJECT_NAME":"STARLINK-30389","OBJECT_ID":"2023-134N","EPOCH":"2026-03-09T22:00:01.999584","MEAN_MOTION":15.16403467,"ECCENTRICITY":0.00019924,"INCLINATION":43.0002,"RA_OF_ASC_NODE":195.6102,"ARG_OF_PERICENTER":266.5595,"MEAN_ANOMALY":76.2223,"EPHEMERIS_TYPE":0,"CLASSIFICATION_TYPE":"U","NORAD_CAT_ID":57783,"ELEMENT_SET_NO":999,"REV_AT_EPOCH":578,"BSTAR":0.003849227,"MEAN_MOTION_DOT":0.00076742,"MEAN_MOTION_DDOT":0}]
